{
    "CCSDS_OMM_VERS": "3.0",
    "COMMENT": "GENERATED VIA SPACE-TRACK.ORG API",
    "CREATION_DATE": "2025-11-24T07:26:19",
    "ORIGINATOR": "18 SPCS",
    "OBJECT_NAME": "BEIDOU 12",
    "OBJECT_ID": "2012-018A",
    "CENTER_NAME": "EARTH",
    "REF_FRAME": "TEME",
    "TIME_SYSTEM": "UTC",
    "MEAN_ELEMENT_THEORY": "SGP4",
    "EPOCH": "2025-11-24T01:41:43.275264",
    "MEAN_MOTION": "1.86229932",
    "ECCENTRICITY": "0.00246600",
    "INCLINATION": "55.9361",
    "RA_OF_ASC_NODE": "311.7853",
    "ARG_OF_PERICENTER": "272.6763",
    "MEAN_ANOMALY": "87.0383",
    "EPHEMERIS_TYPE": "0",
    "CLASSIFICATION_TYPE": "U",
    "NORAD_CAT_ID": "38250",
    "ELEMENT_SET_NO": "999",
    "REV_AT_EPOCH": "9212",
    "BSTAR": "0.00000000000000",
    "MEAN_MOTION_DOT": "-0.00000048",
    "MEAN_MOTION_DDOT": "0.0000000000000",
    "SEMIMAJOR_AXIS": "27906.295",
    "PERIOD": "773.238",
    "APOAPSIS": "21596.977",
    "PERIAPSIS": "21459.343",
    "OBJECT_TYPE": "PAYLOAD",
    "RCS_SIZE": "LARGE",
    "COUNTRY_CODE": "PRC",
    "LAUNCH_DATE": "2012-04-29",
    "SITE": "XSC",
    "DECAY_DATE": null,
    "FILE": "4896936",
    "GP_ID": "303366001",
    "TLE_LINE0": "0 BEIDOU 12",
    "TLE_LINE1": "1 38250U 12018A   25328.07063976 -.00000048  00000-0  00000+0 0  9990",
    "TLE_LINE2": "2 38250  55.9361 311.7853 0024660 272.6763  87.0383  1.86229932 92123"
}